{
    "links": {
        "self": "http://www.neowsapp.com/rest/v1/neo/3273522?api_key=iIulBulltgU6a56xZRHN4H3l9WmuAYTsLGpBGhQ2"
    },
    "id": "3273522",
    "neo_reference_id": "3273522",
    "name": "(2005 EN30)",
    "designation": "2005 EN30",
    "nasa_jpl_url": "http://ssd.jpl.nasa.gov/sbdb.cgi?sstr=3273522",
    "absolute_magnitude_h": 23.0,
    "estimated_diameter": {
        "kilometers": {
            "estimated_diameter_min": 0.0667659413,
            "estimated_diameter_max": 0.1492931834
        },
        "meters": {
            "estimated_diameter_min": 66.7659413495,
            "estimated_diameter_max": 149.2931834393
        },
        "miles": {
            "estimated_diameter_min": 0.0414864197,
            "estimated_diameter_max": 0.0927664547
        },
        "feet": {
            "estimated_diameter_min": 219.0483710172,
            "estimated_diameter_max": 489.807047955
        }
    },
    "is_potentially_hazardous_asteroid": false,
    "close_approach_data": [
        {
            "close_approach_date": "2005-03-09",
            "close_approach_date_full": "2005-Mar-09 16:57",
            "epoch_date_close_approach": 1110387420000,
            "relative_velocity": {
                "kilometers_per_second": "11.0118059726",
                "kilometers_per_hour": "39642.5015013017",
                "miles_per_hour": "24632.3087800727"
            },
            "miss_distance": {
                "astronomical": "0.1956018071",
                "lunar": "76.0891029619",
                "kilometers": "29261613.710310877",
                "miles": "18182323.6340370226"
            },
            "orbiting_body": "Earth"
        }
    ],
    "orbital_data": {
        "orbit_id": "7",
        "orbit_determination_date": "2017-04-06 09:11:23",
        "first_observation_date": "2005-03-04",
        "last_observation_date": "2005-03-16",
        "data_arc_in_days": 12,
        "observations_used": 22,
        "orbit_uncertainty": "9",
        "minimum_orbit_intersection": ".195298",
        "jupiter_tisserand_invariant": "4.110",
        "epoch_osculation": "2453436.5",
        "eccentricity": ".2983058800968327",
        "semi_major_axis": "1.682024017392031",
        "inclination": "20.50329694908535",
        "ascending_node_longitude": "344.2905167238859",
        "orbital_period": "796.7952124775566",
        "perihelion_distance": "1.180266362539891",
        "perihelion_argument": "196.2775312698753",
        "aphelion_distance": "2.183781672244171",
        "perihelion_time": "2453452.696327893340",
        "mean_anomaly": "352.682338008191",
        "mean_motion": ".451809943587155",
        "equinox": "J2000",
        "orbit_class": {
            "orbit_class_type": "AMO",
            "orbit_class_description": "Near-Earth asteroid orbits similar to that of 1221 Amor",
            "orbit_class_range": "1.017 AU < q (perihelion) < 1.3 AU"
        }
    },
    "is_sentry_object": false
}